{
  "type": "FeatureCollection",
  "features": [
    {
      "type": "Feature",
      "properties": {
        "norad_id": 31492,
        "name": "FENGYUN 1C DEB",
        "group": "fengyun-1c-debris",
        "lat": 39.69305805826401,
        "lon": -30.58297481257757,
        "alt_km": 665.1414723753714,
        "timestamp": "2025-12-02T19:35:50.838656+00:00",
        "meta_object_name": "FENGYUN 1C DEB",
        "meta_object_id": "1999-025BWF",
        "meta_epoch": "2025-11-30T16:19:50.588832",
        "meta_mean_motion": 14.70037284,
        "meta_eccentricity": 0.00642617,
        "meta_inclination": 98.8558,
        "meta_ra_of_asc_node": 139.6647,
        "meta_arg_of_pericenter": 46.3479,
        "meta_mean_anomaly": 314.3027,
        "meta_ephemeris_type": 0,
        "meta_classification_type": "U",
        "meta_norad_cat_id": 31492,
        "meta_element_set_no": 999,
        "meta_rev_at_epoch": 96329,
        "meta_bstar": 0.0030343762,
        "meta_mean_motion_dot": 0.00018787,
        "meta_mean_motion_ddot": 0,
        "tle_line1": "1 31492U 99025BWF 25334.68044663  .00018787  00000+0  30344-2 0  9994",
        "tle_line2": "2 31492  98.8558 139.6647 0064261  46.3479 314.3027 14.70037284963297"
      },
      "geometry": {
        "type": "Point",
        "coordinates": [
          -30.58297481257757,
          39.69305805826401
        ]
      }
    },
    {
      "type": "Feature",
      "properties": {
        "norad_id": 31493,
        "name": "FENGYUN 1C DEB",
        "group": "fengyun-1c-debris",
        "lat": -21.933285196415497,
        "lon": -74.09270925143383,
        "alt_km": 984.1768022123542,
        "timestamp": "2025-12-02T19:35:50.838666+00:00",
        "meta_object_name": "FENGYUN 1C DEB",
        "meta_object_id": "1999-025BWG",
        "meta_epoch": "2025-11-30T02:11:52.626912",
        "meta_mean_motion": 13.92931,
        "meta_eccentricity": 0.01170362,
        "meta_inclination": 100.1349,
        "meta_ra_of_asc_node": 278.7968,
        "meta_arg_of_pericenter": 209.2895,
        "meta_mean_anomaly": 150.1667,
        "meta_ephemeris_type": 0,
        "meta_classification_type": "U",
        "meta_norad_cat_id": 31493,
        "meta_element_set_no": 999,
        "meta_rev_at_epoch": 59690,
        "meta_bstar": 0.0007972621,
        "meta_mean_motion_dot": 1.042e-05,
        "meta_mean_motion_ddot": 0,
        "tle_line1": "1 31493U 99025BWG 25334.09158133  .00001042  00000+0  79726-3 0  9992",
        "tle_line2": "2 31493 100.1349 278.7968 0117036 209.2895 150.1667 13.92931000596903"
      },
      "geometry": {
        "type": "Point",
        "coordinates": [
          -74.09270925143383,
          -21.933285196415497
        ]
      }
    },
    {
      "type": "Feature",
      "properties": {
        "norad_id": 31495,
        "name": "FENGYUN 1C DEB",
        "group": "fengyun-1c-debris",
        "lat": -45.00473014117754,
        "lon": -141.2204122662739,
        "alt_km": 806.3241392689915,
        "timestamp": "2025-12-02T19:35:50.838676+00:00",
        "meta_object_name": "FENGYUN 1C DEB",
        "meta_object_id": "1999-025BWJ",
        "meta_epoch": "2025-11-29T09:28:29.855136",
        "meta_mean_motion": 14.2907414,
        "meta_eccentricity": 0.00253264,
        "meta_inclination": 99.1199,
        "meta_ra_of_asc_node": 205.9571,
        "meta_arg_of_pericenter": 218.4335,
        "meta_mean_anomaly": 141.5042,
        "meta_ephemeris_type": 0,
        "meta_classification_type": "U",
        "meta_norad_cat_id": 31495,
        "meta_element_set_no": 999,
        "meta_rev_at_epoch": 63200,
        "meta_bstar": 0.0012827316,
        "meta_mean_motion_dot": 3.214e-05,
        "meta_mean_motion_ddot": 0,
        "tle_line1": "1 31495U 99025BWJ 25333.39478999  .00003214  00000+0  12827-2 0  9992",
        "tle_line2": "2 31495  99.1199 205.9571 0025326 218.4335 141.5042 14.29074140632005"
      },
      "geometry": {
        "type": "Point",
        "coordinates": [
          -141.2204122662739,
          -45.00473014117754
        ]
      }
    },
    {
      "type": "Feature",
      "properties": {
        "norad_id": 31497,
        "name": "FENGYUN 1C DEB",
        "group": "fengyun-1c-debris",
        "lat": 65.7578507708076,
        "lon": 159.69220962491866,
        "alt_km": 773.4515957912427,
        "timestamp": "2025-12-02T19:35:50.838687+00:00",
        "meta_object_name": "FENGYUN 1C DEB",
        "meta_object_id": "1999-025BWL",
        "meta_epoch": "2025-11-30T19:14:30.156288",
        "meta_mean_motion": 14.39183489,
        "meta_eccentricity": 0.01686601,
        "meta_inclination": 98.3694,
        "meta_ra_of_asc_node": 318.6423,
        "meta_arg_of_pericenter": 18.9522,
        "meta_mean_anomaly": 99.0471,
        "meta_ephemeris_type": 0,
        "meta_classification_type": "U",
        "meta_norad_cat_id": 31497,
        "meta_element_set_no": 999,
        "meta_rev_at_epoch": 97383,
        "meta_bstar": 0.00028330804,
        "meta_mean_motion_dot": 9.88e-06,
        "meta_mean_motion_ddot": 0,
        "tle_line1": "1 31497U 99025BWL 25334.80173792  .00000988  00000+0  28331-3 0  9997",
        "tle_line2": "2 31497  98.3694 318.6423 0168660  18.9522  99.0471 14.39183489973836"
      },
      "geometry": {
        "type": "Point",
        "coordinates": [
          159.69220962491866,
          65.7578507708076
        ]
      }
    },
    {
      "type": "Feature",
      "properties": {
        "norad_id": 31498,
        "name": "FENGYUN 1C DEB",
        "group": "fengyun-1c-debris",
        "lat": 81.44599070581998,
        "lon": -133.72304678004238,
        "alt_km": 943.5747137972448,
        "timestamp": "2025-12-02T19:35:50.838697+00:00",
        "meta_object_name": "FENGYUN 1C DEB",
        "meta_object_id": "1999-025BWM",
        "meta_epoch": "2025-11-30T09:36:20.130336",
        "meta_mean_motion": 13.76941251,
        "meta_eccentricity": 0.02170133,
        "meta_inclination": 98.4854,
        "meta_ra_of_asc_node": 307.0815,
        "meta_arg_of_pericenter": 178.1743,
        "meta_mean_anomaly": 182.0252,
        "meta_ephemeris_type": 0,
        "meta_classification_type": "U",
        "meta_norad_cat_id": 31498,
        "meta_element_set_no": 999,
        "meta_rev_at_epoch": 92564,
        "meta_bstar": 0.0014956317,
        "meta_mean_motion_dot": 1.718e-05,
        "meta_mean_motion_ddot": 0,
        "tle_line1": "1 31498U 99025BWM 25334.40023299  .00001718  00000+0  14956-2 0  9999",
        "tle_line2": "2 31498  98.4854 307.0815 0217013 178.1743 182.0252 13.76941251925649"
      },
      "geometry": {
        "type": "Point",
        "coordinates": [
          -133.72304678004238,
          81.44599070581998
        ]
      }
    },
    {
      "type": "Feature",
      "properties": {
        "norad_id": 31503,
        "name": "FENGYUN 1C DEB",
        "group": "fengyun-1c-debris",
        "lat": 1.7915333836643899,
        "lon": 21.80262901683638,
        "alt_km": 791.0423625221802,
        "timestamp": "2025-12-02T19:35:50.838707+00:00",
        "meta_object_name": "FENGYUN 1C DEB",
        "meta_object_id": "1999-025BWS",
        "meta_epoch": "2025-11-28T08:24:38.600064",
        "meta_mean_motion": 14.22494227,
        "meta_eccentricity": 0.00494384,
        "meta_inclination": 100.0997,
        "meta_ra_of_asc_node": 196.3724,
        "meta_arg_of_pericenter": 227.4731,
        "meta_mean_anomaly": 132.2262,
        "meta_ephemeris_type": 0,
        "meta_classification_type": "U",
        "meta_norad_cat_id": 31503,
        "meta_element_set_no": 999,
        "meta_rev_at_epoch": 64042,
        "meta_bstar": 0.0010906214,
        "meta_mean_motion_dot": 2.408e-05,
        "meta_mean_motion_ddot": 0,
        "tle_line1": "1 31503U 99025BWS 25332.35044676  .00002408  00000+0  10906-2 0  9998",
        "tle_line2": "2 31503 100.0997 196.3724 0049438 227.4731 132.2262 14.22494227640427"
      },
      "geometry": {
        "type": "Point",
        "coordinates": [
          21.80262901683638,
          1.7915333836643899
        ]
      }
    },
    {
      "type": "Feature",
      "properties": {
        "norad_id": 31507,
        "name": "FENGYUN 1C DEB",
        "group": "fengyun-1c-debris",
        "lat": -76.86373142333011,
        "lon": 47.431370253590366,
        "alt_km": 808.9947124447917,
        "timestamp": "2025-12-02T19:35:50.838720+00:00",
        "meta_object_name": "FENGYUN 1C DEB",
        "meta_object_id": "1999-025BWW",
        "meta_epoch": "2025-12-02T08:41:42.057312",
        "meta_mean_motion": 14.52107612,
        "meta_eccentricity": 0.0118016,
        "meta_inclination": 98.1939,
        "meta_ra_of_asc_node": 8.8607,
        "meta_arg_of_pericenter": 109.877,
        "meta_mean_anomaly": 316.9215,
        "meta_ephemeris_type": 0,
        "meta_classification_type": "U",
        "meta_norad_cat_id": 31507,
        "meta_element_set_no": 999,
        "meta_rev_at_epoch": 97870,
        "meta_bstar": 0.00059076,
        "meta_mean_motion_dot": 2.572e-05,
        "meta_mean_motion_ddot": 0,
        "tle_line1": "1 31507U 99025BWW 25336.36229233  .00002572  00000+0  59076-3 0  9995",
        "tle_line2": "2 31507  98.1939   8.8607 0118016 109.8770 316.9215 14.52107612978702"
      },
      "geometry": {
        "type": "Point",
        "coordinates": [
          47.431370253590366,
          -76.86373142333011
        ]
      }
    }
  ]
}